STARLINK-2022           
1 47643U 21012Z   24064.16424139  .00001891  00000+0  14580-3 0  9995
2 47643  53.0527 113.5209 0001234  80.2675 279.8453 15.06403076168888
